FENGYUN 1C DEB          
1 38166U 99025ERP 24366.18088916  .00015796  00000+0  67659-2 0  9993
2 38166  99.0821  89.8552 0059411 321.7684  37.9287 14.23964772588274
FENGYUN 1C DEB          
1 38169U 99025ERS 24362.57901382  .00027602  00000+0  60173-2 0  9999
2 38169  98.9399 299.3674 0034819  64.4273 296.0516 14.57453818777722
FENGYUN 1C DEB          
1 38173U 99025ERW 24366.42499769  .00010444  00000+0  32141-2 0  9993
2 38173  99.0329 245.0571 0172967  47.2258 314.3327 14.33408111556757
FENGYUN 1C DEB          
1 38491U 99025ESA 24365.76504404  .00002861  00000+0  17244-2 0  9996
2 38491  98.9418  15.8522 0227069 261.3126  96.2256 13.95496468616194
FENGYUN 1C DEB          
1 38492U 99025ESB 24364.52329095  .00009239  00000+0  61878-2 0  9999
2 38492  98.6108  95.1529 0239325  30.3235 331.1525 13.88095787706662
FENGYUN 1C DEB          
1 38493U 99025ESC 24366.16340756  .00001554  00000+0  11164-2 0  9994
2 38493  99.0325 343.2379 0430343  64.9972 299.5222 13.61657922517806
FENGYUN 1C DEB          
1 38494U 99025ESD 24366.39136308  .00020571  00000+0  80283-2 0  9994
2 38494  98.4195 338.6688 0410602 260.0549  95.4047 13.92143871 23202
FENGYUN 1C DEB          
1 38496U 99025ESF 24366.81090751  .00004811  00000+0  27436-2 0  9994
2 38496  98.7754  19.5505 0079088 263.6531  95.5627 14.08580134761489
FENGYUN 1C DEB          
1 38498U 99025ESH 24363.86021350  .00001664  00000+0  29091-2 0  9999
2 38498  99.7287  55.6898 0560912 144.3488 219.6467 12.95849530492233
FENGYUN 1C DEB          
1 38503U 99025ESN 24365.39901499  .00180162  00000+0  84225-2 0  9998
2 38503  99.4560 239.3367 0035245 238.7131 121.0643 15.18412938586391
FENGYUN 1C DEB          
1 38512U 99025ESX 24366.56139135  .00006550  00000+0  59277-2 0  9995
2 38512  98.3971 284.5071 0231185 317.9106  40.4487 13.72612591130257
FENGYUN 1C DEB          
1 38513U 99025ESY 24363.51647872  .00048901  00000+0  51566-2 0  9999
2 38513  97.6443 280.9000 0294490 289.6241  67.3397 14.62208657895462
FENGYUN 1C DEB          
1 38514U 99025ESZ 24364.88206835  .00031431  00000+0  13374-1 0  9995
2 38514  98.0477  64.5880 0310572 298.4015  58.6172 14.02298248858073
FENGYUN 1C DEB          
1 38516U 99025ETB 24365.79007583  .00001309  00000+0  45481-3 0  9994
2 38516  98.4102 352.5473 0112618  76.7379 284.6337 14.33577565799011
FENGYUN 1C DEB          
1 38717U 99025ETJ 24365.76538047  .00012851  00000+0  63354-2 0  9990
2 38717  99.1630   3.6042 0060311 257.9439 276.0657 14.16656692535070
FENGYUN 1C DEB          
1 38722U 99025ETP 24364.87747083  .00023846  00000+0  55119-2 0  9995
2 38722  99.3693  57.4287 0178191  50.4973 311.1818 14.45842404654151
FENGYUN 1C DEB          
1 38724U 99025ETR 24365.48819590  .00020979  00000+0  11400-1 0  9996
2 38724  98.7502  17.1968 0135533 337.6091  21.9197 14.07699363517255
FENGYUN 1C DEB          
1 38725U 99025ETS 24365.26298221  .00021530  00000+0  74541-2 0  9995
2 38725  98.8575 112.8633 0039335 206.0515 153.8691 14.35219072718165
FENGYUN 1C DEB          
1 38726U 99025ETT 24366.65158097  .00057856  00000+0  11042-1 0  9992
2 38726  99.1523 336.1389 0043377 140.7029 219.7331 14.63050895647326
FENGYUN 1C DEB          
1 38728U 99025ETV 24365.08607514  .00023471  00000+0  43448-2 0  9995
2 38728  99.2299 302.2856 0086479  38.7402 332.9594 14.62909731605136
FENGYUN 1C DEB          
1 38789U 99025EUD 24364.89972264  .00009503  00000+0  21666-2 0  9995
2 38789  98.9002 229.3474 0215986 343.8615  26.4427 14.42662883749433
FENGYUN 1C DEB          
1 38793U 99025EUH 24360.65683764  .00348789  00000+0  13822-1 0  9990
2 38793  98.6456 158.3762 0034454 253.3022 106.4428 15.23337569572990
FENGYUN 1C DEB          
1 38797U 99025EUM 24366.93793153  .00001576  00000+0  17347-2 0  9992
2 38797  99.5135 262.9223 0246744  23.4760 337.7421 13.61300382545775
FENGYUN 1C DEB          
1 38799U 99025EUP 24364.92197827  .00011435  00000+0  27924-2 0  9994
2 38799  98.4358  76.4070 0176483 325.6593  33.3289 14.43720903745187
FENGYUN 1C DEB          
1 38801U 99025EUR 24363.94546491  .00005881  00000+0  13970-2 0  9998
2 38801  98.4205  63.4910 0355872 294.3673 242.9548 14.22132398768838
FENGYUN 1C DEB          
1 38803U 99025EUT 24364.42299516  .00013681  00000+0  64162-2 0  9993
2 38803  99.1260 350.1784 0069533 310.8288  48.6870 14.18953258805197
FENGYUN 1C DEB          
1 38809U 99025EUZ 24364.27337676  .00003296  00000+0  12992-2 0  9997
2 38809  98.6056  19.3779 0226668 251.9675 105.6685 14.16755640642692
FENGYUN 1C DEB          
1 38813U 99025EVD 24365.69163493  .00004257  00000+0  20631-2 0  9990
2 38813  99.3192 338.1988 0006879  22.4944 337.6530 14.18967948433265
FENGYUN 1C DEB          
1 38818U 99025EVJ 24364.93315866  .00003609  00000+0  11513-2 0  9993
2 38818  98.3442  65.6380 0090259  64.6712 108.5951 14.37998806648472
FENGYUN 1C DEB          
1 38819U 99025EVK 24365.77737969  .00002667  00000+0  12709-2 0  9990
2 38819  98.6013   2.4945 0081994 115.5361  57.1128 14.18340220585574
