OBJECT_NAME,OBJECT_ID,EPOCH,MEAN_MOTION,ECCENTRICITY,INCLINATION,RA_OF_ASC_NODE,ARG_OF_PERICENTER,MEAN_ANOMALY,EPHEMERIS_TYPE,CLASSIFICATION_TYPE,NORAD_CAT_ID,ELEMENT_SET_NO,REV_AT_EPOCH,BSTAR,MEAN_MOTION_DOT,MEAN_MOTION_DDOT
FENGYUN 1C DEB,1999-025ERP,2024-12-31T04:20:28.823424,14.23964772,.0059411,99.0821,89.8552,321.7684,37.9287,0,U,38166,999,58827,.67659E-2,.15796E-3,0
FENGYUN 1C DEB,1999-025ERS,2024-12-27T13:53:46.794048,14.57453818,.0034819,98.9399,299.3674,64.4273,296.0516,0,U,38169,999,77772,.60173E-2,.27602E-3,0
FENGYUN 1C DEB,1999-025ERW,2024-12-31T10:11:59.800416,14.33408111,.0172967,99.0329,245.0571,47.2258,314.3327,0,U,38173,999,55675,.32141E-2,.10444E-3,0
FENGYUN 1C DEB,1999-025ESA,2024-12-30T18:21:39.805056,13.95496468,.0227069,98.9418,15.8522,261.3126,96.2256,0,U,38491,999,61619,.17244E-2,.2861E-4,0
FENGYUN 1C DEB,1999-025ESB,2024-12-29T12:33:32.338080,13.88095787,.0239325,98.6108,95.1529,30.3235,331.1525,0,U,38492,999,70666,.61878E-2,.9239E-4,0
FENGYUN 1C DEB,1999-025ESC,2024-12-31T03:55:18.413184,13.61657922,.0430343,99.0325,343.2379,64.9972,299.5222,0,U,38493,999,51780,.11164E-2,.1554E-4,0
FENGYUN 1C DEB,1999-025ESD,2024-12-31T09:23:33.770112,13.92143871,.0410602,98.4195,338.6688,260.0549,95.4047,0,U,38494,999,2320,.80283E-2,.20571E-3,0
FENGYUN 1C DEB,1999-025ESF,2024-12-31T19:27:42.408864,14.08580134,.0079088,98.7754,19.5505,263.6531,95.5627,0,U,38496,999,76148,.27436E-2,.4811E-4,0
FENGYUN 1C DEB,1999-025ESH,2024-12-28T20:38:42.446400,12.95849530,.0560912,99.7287,55.6898,144.3488,219.6467,0,U,38498,999,49223,.29091E-2,.1664E-4,0
FENGYUN 1C DEB,1999-025ESN,2024-12-30T09:34:34.895136,15.18412938,.0035245,99.4560,239.3367,238.7131,121.0643,0,U,38503,999,58639,.84225E-2,.180162E-2,0
FENGYUN 1C DEB,1999-025ESX,2024-12-31T13:28:24.212640,13.72612591,.0231185,98.3971,284.5071,317.9106,40.4487,0,U,38512,999,13025,.59277E-2,.655E-4,0
FENGYUN 1C DEB,1999-025ESY,2024-12-28T12:23:43.761408,14.62208657,.029449,97.6443,280.9000,289.6241,67.3397,0,U,38513,999,89546,.51566E-2,.48901E-3,0
FENGYUN 1C DEB,1999-025ESZ,2024-12-29T21:10:10.705440,14.02298248,.0310572,98.0477,64.5880,298.4015,58.6172,0,U,38514,999,85807,.13374E-1,.31431E-3,0
FENGYUN 1C DEB,1999-025ETB,2024-12-30T18:57:42.551712,14.33577565,.0112618,98.4102,352.5473,76.7379,284.6337,0,U,38516,999,79901,.45481E-3,.1309E-4,0
FENGYUN 1C DEB,1999-025ETJ,2024-12-30T18:22:08.872608,14.16656692,.0060311,99.1630,3.6042,257.9439,276.0657,0,U,38717,999,53507,.63354E-2,.12851E-3,0
FENGYUN 1C DEB,1999-025ETP,2024-12-29T21:03:33.479712,14.45842404,.0178191,99.3693,57.4287,50.4973,311.1818,0,U,38722,999,65415,.55119E-2,.23846E-3,0
FENGYUN 1C DEB,1999-025ETR,2024-12-30T11:43:00.125760,14.07699363,.0135533,98.7502,17.1968,337.6091,21.9197,0,U,38724,999,51725,.114E-1,.20979E-3,0
FENGYUN 1C DEB,1999-025ETS,2024-12-30T06:18:41.662944,14.35219072,.0039335,98.8575,112.8633,206.0515,153.8691,0,U,38725,999,71816,.74541E-2,.2153E-3,0
FENGYUN 1C DEB,1999-025ETT,2024-12-31T15:38:16.595808,14.63050895,.0043377,99.1523,336.1389,140.7029,219.7331,0,U,38726,999,64732,.11042E-1,.57856E-3,0
FENGYUN 1C DEB,1999-025ETV,2024-12-30T02:03:56.892096,14.62909731,.0086479,99.2299,302.2856,38.7402,332.9594,0,U,38728,999,60513,.43448E-2,.23471E-3,0
FENGYUN 1C DEB,1999-025EUD,2024-12-29T21:35:36.036096,14.42662883,.0215986,98.9002,229.3474,343.8615,26.4427,0,U,38789,999,74943,.21666E-2,.9503E-4,0
FENGYUN 1C DEB,1999-025EUH,2024-12-25T15:45:50.772096,15.23337569,.0034454,98.6456,158.3762,253.3022,106.4428,0,U,38793,999,57299,.13822E-1,.348789E-2,0
FENGYUN 1C DEB,1999-025EUM,2024-12-31T22:30:37.284192,13.61300382,.0246744,99.5135,262.9223,23.4760,337.7421,0,U,38797,999,54577,.17347E-2,.1576E-4,0
FENGYUN 1C DEB,1999-025EUP,2024-12-29T22:07:38.922528,14.43720903,.0176483,98.4358,76.4070,325.6593,33.3289,0,U,38799,999,74518,.27924E-2,.11435E-3,0
FENGYUN 1C DEB,1999-025EUR,2024-12-28T22:41:28.168224,14.22132398,.0355872,98.4205,63.4910,294.3673,242.9548,0,U,38801,999,76883,.1397E-2,.5881E-4,0
FENGYUN 1C DEB,1999-025EUT,2024-12-29T10:09:06.781824,14.18953258,.0069533,99.1260,350.1784,310.8288,48.6870,0,U,38803,999,80519,.64162E-2,.13681E-3,0
FENGYUN 1C DEB,1999-025EUZ,2024-12-29T06:33:39.752064,14.16755640,.0226668,98.6056,19.3779,251.9675,105.6685,0,U,38809,999,64269,.12992E-2,.3296E-4,0
FENGYUN 1C DEB,1999-025EVD,2024-12-30T16:35:57.257952,14.18967948,.0006879,99.3192,338.1988,22.4944,337.6530,0,U,38813,999,43326,.20631E-2,.4257E-4,0
FENGYUN 1C DEB,1999-025EVJ,2024-12-29T22:23:44.908224,14.37998806,.0090259,98.3442,65.6380,64.6712,108.5951,0,U,38818,999,64847,.11513E-2,.3609E-4,0
FENGYUN 1C DEB,1999-025EVK,2024-12-30T18:39:25.605216,14.18340220,.0081994,98.6013,2.4945,115.5361,57.1128,0,U,38819,999,58557,.12709E-2,.2667E-4,0
